{"type":"FeatureCollection","metadata":{"what":"Country outlines and coastline for the exposure map, clipped to the Gulf extent.","source":"Natural Earth 1:50m Admin 0 countries","url":"https://raw.githubusercontent.com/nvkelso/natural-earth-vector/master/geojson/ne_50m_admin_0_countries.geojson","licence":"Public domain. Natural Earth asks for no permission; the credit in the module's Sources window is courtesy.","extent":{"lonMin":44.0,"lonMax":60.0,"latMin":16.0,"latMax":33.0,"padDeg":1.5},"processing":"Sutherland-Hodgman clip to the padded extent, rings under 0.0006 sq deg dropped, coordinates rounded to 3 decimal places","built_by":"scripts/fetch_boundaries.py"},"features":[{"type":"Feature","properties":{"name":"Afghanistan","iso":"AFG"},"geometry":{"type":"MultiPolygon","coordinates":[[[[61.5,34.5],[61.5,29.672],[61.224,29.749],[60.843,29.859],[61.104,30.128],[61.332,30.364],[61.5,30.538],[61.5,31.402],[61.346,31.422],[61.111,31.451],[60.854,31.483],[60.821,31.495],[60.792,31.661],[60.804,31.734],[60.788,31.877],[60.79,31.987],[60.827,32.168],[60.829,32.249],[60.71,32.6],[60.645,32.794],[60.577,32.995],[60.562,33.059],[60.561,33.138],[60.718,33.324],[60.767,33.364],[60.859,33.456],[60.917,33.505],[60.907,33.539],[60.806,33.559],[60.655,33.56],[60.574,33.588],[60.511,33.639],[60.486,33.712],[60.527,33.842],[60.486,34.095],[60.57,34.22],[60.643,34.307],[60.889,34.319],[60.804,34.418],[60.763,34.475],[60.736,34.492],[60.733,34.5]]]]}},{"type":"Feature","properties":{"name":"Bahrain","iso":"BHR"},"geometry":{"type":"MultiPolygon","coordinates":[[[[50.607,25.883],[50.575,25.807],[50.544,25.833],[50.466,25.966],[50.489,26.058],[50.452,26.191],[50.47,26.229],[50.564,26.246],[50.586,26.241],[50.558,26.198],[50.61,26.124],[50.617,26.002],[50.607,25.883]]]]}},{"type":"Feature","properties":{"name":"Iran","iso":"IRN"},"geometry":{"type":"MultiPolygon","coordinates":[[[[56.188,26.921],[56.095,26.801],[55.954,26.701],[55.894,26.732],[55.848,26.731],[55.747,26.692],[55.675,26.686],[55.543,26.618],[55.424,26.583],[55.34,26.586],[55.312,26.593],[55.295,26.639],[55.296,26.658],[55.347,26.648],[55.532,26.71],[55.763,26.812],[55.785,26.857],[55.747,26.931],[55.758,26.948],[55.907,26.91],[56.074,26.983],[56.214,27.003],[56.279,26.952],[56.188,26.921]]],[[[60.733,34.5],[60.736,34.492],[60.763,34.475],[60.804,34.418],[60.889,34.319],[60.643,34.307],[60.57,34.22],[60.486,34.095],[60.527,33.842],[60.486,33.712],[60.511,33.639],[60.574,33.588],[60.655,33.56],[60.806,33.559],[60.907,33.539],[60.917,33.505],[60.859,33.456],[60.767,33.364],[60.718,33.324],[60.561,33.138],[60.562,33.059],[60.577,32.995],[60.645,32.794],[60.71,32.6],[60.829,32.249],[60.827,32.168],[60.79,31.987],[60.788,31.877],[60.804,31.734],[60.792,31.661],[60.821,31.495],[60.854,31.483],[61.111,31.451],[61.346,31.422],[61.5,31.402],[61.5,30.538],[61.332,30.364],[61.104,30.128],[60.843,29.859],[61.034,29.663],[61.152,29.543],[61.318,29.373],[61.339,29.332],[61.338,29.265],[61.5,29.019],[61.5,25.163],[61.49,25.154],[61.412,25.102],[61.243,25.142],[61.109,25.184],[60.664,25.282],[60.615,25.33],[60.587,25.414],[60.511,25.437],[60.4,25.312],[60.025,25.384],[59.897,25.362],[59.818,25.401],[59.616,25.403],[59.456,25.481],[59.227,25.428],[59.046,25.417],[58.798,25.555],[58.531,25.592],[58.314,25.581],[58.203,25.592],[58.022,25.641],[57.937,25.692],[57.796,25.653],[57.733,25.725],[57.335,25.792],[57.261,25.919],[57.206,26.037],[57.201,26.159],[57.104,26.371],[57.072,26.68],[57.036,26.801],[56.982,26.905],[56.91,26.995],[56.813,27.09],[56.728,27.128],[56.356,27.2],[56.284,27.191],[56.118,27.143],[55.941,27.038],[55.65,26.978],[55.592,26.932],[55.519,26.83],[55.424,26.771],[55.294,26.786],[55.155,26.725],[54.896,26.557],[54.759,26.505],[54.645,26.509],[54.522,26.589],[54.247,26.697],[54.069,26.732],[53.823,26.708],[53.706,26.726],[53.507,26.852],[53.455,26.943],[53.342,27.004],[52.983,27.142],[52.692,27.323],[52.638,27.392],[52.603,27.493],[52.476,27.617],[52.192,27.717],[52.031,27.824],[51.842,27.848],[51.666,27.845],[51.589,27.864],[51.519,27.91],[51.279,28.131],[51.276,28.219],[51.128,28.435],[51.094,28.512],[51.062,28.726],[51.021,28.782],[50.867,28.87],[50.843,28.928],[50.876,29.004],[50.876,29.063],[50.796,29.117],[50.675,29.147],[50.646,29.212],[50.668,29.34],[50.65,29.42],[50.544,29.548],[50.387,29.679],[50.23,29.873],[50.169,29.921],[50.129,30.048],[50.072,30.199],[49.983,30.209],[49.555,30.029],[49.43,30.13],[49.054,30.307],[49.028,30.333],[49.002,30.374],[49.049,30.397],[49.096,30.407],[49.19,30.375],[49.247,30.413],[49.225,30.472],[49.13,30.509],[49.002,30.507],[49.037,30.45],[48.917,30.397],[48.891,30.328],[48.909,30.241],[48.919,30.121],[48.87,30.062],[48.832,30.035],[48.671,30.028],[48.596,29.975],[48.546,29.962],[48.479,30.004],[48.435,30.038],[48.399,30.11],[48.388,30.16],[48.401,30.188],[48.383,30.23],[48.331,30.285],[48.279,30.316],[48.226,30.321],[48.182,30.355],[48.148,30.417],[48.066,30.458],[48.015,30.466],[48.013,30.656],[48.012,30.824],[48.011,30.99],[47.836,30.996],[47.679,31.002],[47.679,31.142],[47.679,31.401],[47.754,31.601],[47.83,31.794],[47.715,31.936],[47.592,32.088],[47.512,32.151],[47.418,32.34],[47.371,32.424],[47.33,32.456],[47.285,32.474],[47.121,32.467],[46.969,32.568],[46.789,32.688],[46.57,32.834],[46.377,32.929],[46.298,32.95],[46.113,32.958],[46.093,32.976],[46.08,33.028],[46.081,33.087],[46.141,33.174],[46.146,33.23],[46.02,33.416],[45.981,33.47],[45.873,33.492],[45.895,33.546],[45.895,33.582],[45.879,33.61],[45.854,33.623],[45.823,33.625],[45.738,33.603],[45.674,33.687],[45.473,33.925],[45.409,33.954],[45.397,33.971],[45.446,34.044],[45.529,34.153],[45.543,34.216],[45.527,34.285],[45.438,34.415],[45.459,34.47],[45.477,34.5]]]]}},{"type":"Feature","properties":{"name":"Iraq","iso":"IRQ"},"geometry":{"type":"MultiPolygon","coordinates":[[[[42.5,34.5],[45.477,34.5],[45.459,34.47],[45.438,34.415],[45.527,34.285],[45.543,34.216],[45.529,34.153],[45.446,34.044],[45.397,33.971],[45.409,33.954],[45.473,33.925],[45.674,33.687],[45.738,33.603],[45.823,33.625],[45.854,33.623],[45.879,33.61],[45.895,33.582],[45.895,33.546],[45.873,33.492],[45.981,33.47],[46.02,33.416],[46.146,33.23],[46.141,33.174],[46.081,33.087],[46.08,33.028],[46.093,32.976],[46.113,32.958],[46.298,32.95],[46.377,32.929],[46.57,32.834],[46.789,32.688],[46.969,32.568],[47.121,32.467],[47.285,32.474],[47.33,32.456],[47.371,32.424],[47.418,32.34],[47.512,32.151],[47.592,32.088],[47.715,31.936],[47.83,31.794],[47.754,31.601],[47.679,31.401],[47.679,31.142],[47.679,31.002],[47.836,30.996],[48.011,30.99],[48.012,30.824],[48.013,30.656],[48.015,30.466],[48.066,30.458],[48.148,30.417],[48.182,30.355],[48.226,30.321],[48.279,30.316],[48.331,30.285],[48.383,30.23],[48.401,30.188],[48.388,30.16],[48.399,30.11],[48.435,30.038],[48.479,30.004],[48.546,29.962],[48.454,29.938],[48.355,29.957],[48.142,30.041],[48.073,30.043],[47.983,30.011],[47.979,29.983],[47.754,30.077],[47.673,30.096],[47.644,30.097],[47.515,30.096],[47.331,30.08],[47.223,30.042],[47.148,30.001],[47.114,29.961],[47.102,29.94],[47.044,29.823],[46.976,29.673],[46.906,29.538],[46.769,29.347],[46.694,29.26],[46.531,29.096],[46.356,29.064],[45.95,29.096],[45.499,29.132],[45.05,29.167],[44.717,29.194],[44.691,29.202],[44.361,29.435],[44.1,29.619],[43.774,29.849],[43.441,30.084],[43.103,30.322],[42.858,30.495],[42.56,30.718],[42.5,30.762]]]]}},{"type":"Feature","properties":{"name":"Kuwait","iso":"KWT"},"geometry":{"type":"MultiPolygon","coordinates":[[[[48.275,29.624],[48.218,29.602],[48.18,29.611],[48.143,29.665],[48.081,29.799],[48.115,29.849],[48.113,29.87],[48.12,29.886],[48.139,29.897],[48.159,29.96],[48.185,29.979],[48.228,29.936],[48.348,29.783],[48.347,29.72],[48.34,29.695],[48.275,29.624]]],[[[48.442,28.543],[48.269,28.541],[48.05,28.538],[47.872,28.535],[47.671,28.533],[47.583,28.628],[47.553,28.732],[47.521,28.838],[47.433,28.99],[47.139,29.026],[46.982,29.046],[46.725,29.075],[46.531,29.096],[46.694,29.26],[46.769,29.347],[46.906,29.538],[46.976,29.673],[47.044,29.823],[47.102,29.94],[47.114,29.961],[47.148,30.001],[47.223,30.042],[47.331,30.08],[47.515,30.096],[47.644,30.097],[47.673,30.096],[47.754,30.077],[47.979,29.983],[47.974,29.946],[48.006,29.836],[48.077,29.716],[48.136,29.618],[48.143,29.572],[48.089,29.579],[48.048,29.598],[47.97,29.617],[47.817,29.487],[47.725,29.417],[47.723,29.393],[47.845,29.366],[47.935,29.367],[47.998,29.386],[48.051,29.355],[48.086,29.275],[48.1,29.211],[48.184,28.979],[48.253,28.901],[48.339,28.763],[48.371,28.692],[48.39,28.632],[48.442,28.543]]]]}},{"type":"Feature","properties":{"name":"Oman","iso":"OMN"},"geometry":{"type":"MultiPolygon","coordinates":[[[[58.722,20.219],[58.659,20.204],[58.641,20.211],[58.641,20.337],[58.788,20.497],[58.884,20.681],[58.951,20.516],[58.835,20.424],[58.772,20.267],[58.722,20.219]]],[[[53.086,16.648],[53.025,16.78],[52.964,16.912],[52.904,17.044],[52.843,17.176],[52.801,17.268],[52.729,17.3],[52.686,17.398],[52.642,17.498],[52.597,17.598],[52.553,17.698],[52.509,17.798],[52.465,17.897],[52.42,17.997],[52.376,18.097],[52.332,18.197],[52.288,18.297],[52.243,18.397],[52.199,18.497],[52.155,18.597],[52.11,18.696],[52.066,18.796],[52.022,18.896],[51.978,18.996],[52.119,19.043],[52.291,19.1],[52.463,19.158],[52.635,19.215],[52.807,19.272],[52.979,19.33],[53.151,19.387],[53.323,19.444],[53.495,19.502],[53.667,19.559],[53.839,19.617],[54.011,19.674],[54.183,19.731],[54.355,19.788],[54.527,19.846],[54.699,19.903],[54.871,19.96],[54.977,19.996],[55.021,20.129],[55.058,20.24],[55.095,20.351],[55.131,20.461],[55.168,20.572],[55.205,20.683],[55.241,20.793],[55.278,20.904],[55.314,21.015],[55.351,21.126],[55.388,21.236],[55.424,21.347],[55.461,21.458],[55.498,21.568],[55.534,21.679],[55.571,21.79],[55.607,21.9],[55.641,22.002],[55.578,22.1],[55.493,22.231],[55.404,22.368],[55.32,22.497],[55.259,22.591],[55.186,22.704],[55.194,22.85],[55.192,22.923],[55.2,23.035],[55.27,23.19],[55.353,23.387],[55.414,23.519],[55.466,23.633],[55.508,23.725],[55.532,23.819],[55.519,23.885],[55.492,23.91],[55.468,23.941],[55.548,23.991],[55.697,24.024],[55.779,24.017],[55.894,24.041],[55.985,24.063],[55.992,24.093],[55.966,24.143],[55.929,24.215],[55.8,24.223],[55.761,24.243],[55.806,24.35],[55.804,24.384],[55.787,24.424],[55.768,24.491],[55.778,24.577],[55.804,24.636],[55.804,24.684],[55.792,24.781],[55.796,24.868],[55.823,24.911],[55.871,24.951],[55.916,24.972],[55.963,24.97],[56.001,24.953],[56.017,24.908],[56.006,24.876],[55.98,24.872],[55.97,24.859],[56.008,24.798],[56.064,24.739],[56.107,24.749],[56.154,24.796],[56.205,24.833],[56.268,24.867],[56.314,24.931],[56.353,24.973],[56.388,24.979],[56.49,24.716],[56.641,24.47],[56.774,24.335],[56.913,24.15],[57.123,23.981],[57.22,23.923],[57.611,23.804],[57.825,23.759],[58.12,23.717],[58.325,23.624],[58.393,23.618],[58.5,23.646],[58.578,23.643],[58.773,23.517],[58.83,23.397],[58.912,23.334],[58.983,23.235],[59.03,23.131],[59.195,22.972],[59.311,22.793],[59.429,22.661],[59.535,22.579],[59.696,22.546],[59.823,22.509],[59.837,22.421],[59.824,22.305],[59.8,22.22],[59.681,22.054],[59.653,21.951],[59.518,21.782],[59.371,21.499],[59.304,21.435],[59.069,21.289],[58.896,21.113],[58.69,20.807],[58.534,20.504],[58.474,20.407],[58.349,20.387],[58.266,20.395],[58.209,20.424],[58.232,20.507],[58.245,20.599],[58.169,20.59],[58.103,20.57],[57.947,20.344],[57.862,20.244],[57.844,20.118],[57.802,19.955],[57.741,19.804],[57.714,19.678],[57.715,19.607],[57.761,19.432],[57.764,19.253],[57.79,19.146],[57.812,19.017],[57.738,18.977],[57.676,18.958],[57.428,18.944],[57.177,18.903],[56.957,18.828],[56.826,18.754],[56.655,18.587],[56.551,18.166],[56.383,17.988],[56.27,17.951],[55.998,17.935],[55.614,17.886],[55.479,17.843],[55.255,17.586],[55.238,17.505],[55.281,17.446],[55.296,17.382],[55.275,17.321],[55.174,17.158],[55.064,17.039],[54.772,16.965],[54.665,17.009],[54.567,17.031],[54.377,17.034],[54.068,17.006],[53.954,16.918],[53.775,16.856],[53.61,16.76],[53.298,16.723],[53.086,16.648]]],[[[56.298,25.651],[56.279,25.628],[56.25,25.625],[56.184,25.645],[56.145,25.691],[56.152,25.746],[56.154,25.848],[56.173,25.945],[56.167,26.047],[56.117,26.068],[56.08,26.063],[56.164,26.207],[56.197,26.229],[56.228,26.22],[56.306,26.235],[56.346,26.314],[56.379,26.356],[56.413,26.351],[56.43,26.327],[56.418,26.208],[56.416,26.109],[56.374,25.805],[56.329,25.752],[56.307,25.709],[56.298,25.651]]],[[[56.282,25.236],[56.24,25.209],[56.211,25.213],[56.217,25.267],[56.234,25.304],[56.277,25.301],[56.288,25.279],[56.282,25.236]]]]}},{"type":"Feature","properties":{"name":"Pakistan","iso":"PAK"},"geometry":{"type":"MultiPolygon","coordinates":[[[[61.5,29.019],[61.338,29.265],[61.339,29.332],[61.318,29.373],[61.152,29.543],[61.034,29.663],[60.843,29.859],[61.224,29.749],[61.5,29.672]]]]}},{"type":"Feature","properties":{"name":"Qatar","iso":"QAT"},"geometry":{"type":"MultiPolygon","coordinates":[[[[51.268,24.607],[51.178,24.587],[51.093,24.565],[51.023,24.565],[50.966,24.574],[50.928,24.595],[50.856,24.68],[50.804,24.789],[50.836,24.85],[50.847,24.889],[50.777,25.177],[50.755,25.399],[50.763,25.445],[50.803,25.497],[50.869,25.613],[50.904,25.724],[51.003,25.981],[51.108,26.081],[51.262,26.153],[51.389,26.011],[51.543,25.902],[51.572,25.781],[51.527,25.682],[51.485,25.525],[51.51,25.452],[51.52,25.39],[51.561,25.284],[51.602,25.148],[51.609,25.053],[51.587,24.965],[51.533,24.891],[51.428,24.668],[51.396,24.645],[51.268,24.607]]]]}},{"type":"Feature","properties":{"name":"Saudi Arabia","iso":"SAU"},"geometry":{"type":"MultiPolygon","coordinates":[[[[51.978,18.996],[51.743,18.965],[51.515,18.934],[51.258,18.899],[50.95,18.858],[50.708,18.825],[50.355,18.778],[50.039,18.735],[49.742,18.695],[49.445,18.655],[49.192,18.621],[49.042,18.582],[48.865,18.495],[48.593,18.362],[48.316,18.227],[48.172,18.157],[48.022,17.977],[47.946,17.886],[47.808,17.721],[47.704,17.597],[47.58,17.448],[47.525,17.316],[47.442,17.112],[47.37,17.06],[47.251,16.994],[47.144,16.947],[46.976,16.953],[46.88,17.079],[46.779,17.212],[46.728,17.266],[46.682,17.269],[46.513,17.252],[46.31,17.231],[46.071,17.253],[45.794,17.278],[45.535,17.302],[45.407,17.32],[45.237,17.406],[45.193,17.423],[45.148,17.427],[44.946,17.43],[44.747,17.432],[44.546,17.404],[44.355,17.414],[44.156,17.399],[44.086,17.366],[44.008,17.367],[43.96,17.338],[43.917,17.325],[43.866,17.35],[43.804,17.344],[43.713,17.366],[43.653,17.422],[43.597,17.471],[43.539,17.499],[43.474,17.516],[43.418,17.516],[43.346,17.486],[43.302,17.457],[43.191,17.359],[43.186,17.325],[43.237,17.266],[43.221,17.239],[43.156,17.205],[43.136,17.113],[43.126,17.062],[43.117,16.942],[43.146,16.847],[43.184,16.812],[43.186,16.771],[43.165,16.689],[43.105,16.664],[43.061,16.587],[43.034,16.55],[42.986,16.509],[42.799,16.372],[42.79,16.452],[42.731,16.57],[42.726,16.653],[42.699,16.737],[42.647,16.801],[42.553,16.868],[42.544,16.96],[42.5,17.017],[42.5,30.762],[42.56,30.718],[42.858,30.495],[43.103,30.322],[43.441,30.084],[43.774,29.849],[44.1,29.619],[44.361,29.435],[44.691,29.202],[44.717,29.194],[45.05,29.167],[45.499,29.132],[45.95,29.096],[46.356,29.064],[46.531,29.096],[46.725,29.075],[46.982,29.046],[47.139,29.026],[47.433,28.99],[47.521,28.838],[47.553,28.732],[47.583,28.628],[47.671,28.533],[47.872,28.535],[48.05,28.538],[48.269,28.541],[48.442,28.543],[48.499,28.449],[48.523,28.355],[48.626,28.133],[48.774,27.959],[48.809,27.896],[48.833,27.801],[48.807,27.765],[48.797,27.724],[48.906,27.629],[49.087,27.549],[49.158,27.528],[49.237,27.493],[49.175,27.438],[49.282,27.31],[49.405,27.181],[49.538,27.152],[49.717,26.956],[49.986,26.829],[50.15,26.663],[50.135,26.66],[50.087,26.676],[50.026,26.699],[50.008,26.679],[50.011,26.609],[50.027,26.527],[50.111,26.456],[50.185,26.405],[50.214,26.308],[50.155,26.101],[50.135,26.101],[50.096,26.119],[50.054,26.123],[50.032,26.111],[50.081,25.961],[50.13,25.847],[50.19,25.756],[50.239,25.623],[50.281,25.566],[50.455,25.425],[50.508,25.307],[50.558,25.087],[50.667,24.964],[50.726,24.869],[50.804,24.789],[50.856,24.68],[50.928,24.595],[50.966,24.574],[51.023,24.565],[51.093,24.565],[51.178,24.587],[51.268,24.607],[51.338,24.564],[51.411,24.571],[51.418,24.531],[51.37,24.477],[51.31,24.34],[51.395,24.319],[51.477,24.308],[51.535,24.286],[51.568,24.286],[51.568,24.258],[51.572,24.128],[51.593,24.079],[51.629,24.035],[51.684,23.97],[51.739,23.904],[51.794,23.838],[51.849,23.773],[51.904,23.708],[51.959,23.642],[52.014,23.576],[52.069,23.511],[52.125,23.445],[52.179,23.38],[52.235,23.314],[52.29,23.249],[52.345,23.183],[52.4,23.118],[52.455,23.052],[52.51,22.987],[52.555,22.933],[52.639,22.923],[52.666,22.919],[52.742,22.91],[52.859,22.896],[53.012,22.877],[53.192,22.855],[53.394,22.83],[53.61,22.804],[53.832,22.777],[54.055,22.75],[54.27,22.723],[54.472,22.699],[54.652,22.677],[54.805,22.658],[54.922,22.644],[54.998,22.634],[55.025,22.631],[55.104,22.621],[55.119,22.624],[55.186,22.704],[55.259,22.591],[55.32,22.497],[55.404,22.368],[55.493,22.231],[55.578,22.1],[55.641,22.002],[55.607,21.9],[55.571,21.79],[55.534,21.679],[55.498,21.568],[55.461,21.458],[55.424,21.347],[55.388,21.236],[55.351,21.126],[55.314,21.015],[55.278,20.904],[55.241,20.793],[55.205,20.683],[55.168,20.572],[55.131,20.461],[55.095,20.351],[55.058,20.24],[55.021,20.129],[54.977,19.996],[54.871,19.96],[54.699,19.903],[54.527,19.846],[54.355,19.788],[54.183,19.731],[54.011,19.674],[53.839,19.617],[53.667,19.559],[53.495,19.502],[53.323,19.444],[53.151,19.387],[52.979,19.33],[52.807,19.272],[52.635,19.215],[52.463,19.158],[52.291,19.1],[52.119,19.043],[51.978,18.996]]]]}},{"type":"Feature","properties":{"name":"United Arab Emirates","iso":"ARE"},"geometry":{"type":"MultiPolygon","coordinates":[[[[56.298,25.651],[56.363,25.569],[56.373,25.018],[56.388,24.979],[56.353,24.973],[56.314,24.931],[56.268,24.867],[56.205,24.833],[56.154,24.796],[56.107,24.749],[56.064,24.739],[56.008,24.798],[55.97,24.859],[55.98,24.872],[56.006,24.876],[56.017,24.908],[56.001,24.953],[55.963,24.97],[55.916,24.972],[55.871,24.951],[55.823,24.911],[55.796,24.868],[55.792,24.781],[55.804,24.684],[55.804,24.636],[55.778,24.577],[55.768,24.491],[55.787,24.424],[55.804,24.384],[55.806,24.35],[55.761,24.243],[55.8,24.223],[55.929,24.215],[55.966,24.143],[55.992,24.093],[55.985,24.063],[55.894,24.041],[55.779,24.017],[55.697,24.024],[55.548,23.991],[55.468,23.941],[55.492,23.91],[55.519,23.885],[55.532,23.819],[55.508,23.725],[55.466,23.633],[55.414,23.519],[55.353,23.387],[55.27,23.19],[55.2,23.035],[55.192,22.923],[55.194,22.85],[55.186,22.704],[55.119,22.624],[55.104,22.621],[55.025,22.631],[54.998,22.634],[54.922,22.644],[54.805,22.658],[54.652,22.677],[54.472,22.699],[54.27,22.723],[54.055,22.75],[53.832,22.777],[53.61,22.804],[53.394,22.83],[53.192,22.855],[53.012,22.877],[52.859,22.896],[52.742,22.91],[52.666,22.919],[52.639,22.923],[52.555,22.933],[52.51,22.987],[52.455,23.052],[52.4,23.118],[52.345,23.183],[52.29,23.249],[52.235,23.314],[52.179,23.38],[52.125,23.445],[52.069,23.511],[52.014,23.576],[51.959,23.642],[51.904,23.708],[51.849,23.773],[51.794,23.838],[51.739,23.904],[51.684,23.97],[51.629,24.035],[51.593,24.079],[51.572,24.128],[51.568,24.258],[51.568,24.286],[51.605,24.338],[51.623,24.301],[51.665,24.25],[51.735,24.263],[51.768,24.254],[51.792,24.075],[51.843,24.011],[51.906,23.985],[52.119,23.971],[52.251,23.995],[52.511,24.113],[52.648,24.155],[53.026,24.147],[53.33,24.098],[53.802,24.069],[53.893,24.077],[54.148,24.171],[54.304,24.254],[54.397,24.278],[54.458,24.358],[54.499,24.463],[54.535,24.531],[54.58,24.564],[54.624,24.621],[54.659,24.716],[54.747,24.81],[55.098,25.042],[55.304,25.237],[55.322,25.3],[55.433,25.394],[55.523,25.498],[55.941,25.794],[56.025,25.916],[56.075,26.053],[56.08,26.063],[56.117,26.068],[56.167,26.047],[56.173,25.945],[56.154,25.848],[56.152,25.746],[56.145,25.691],[56.184,25.645],[56.25,25.625],[56.279,25.628],[56.298,25.651]]],[[[53.332,24.259],[53.258,24.253],[53.191,24.291],[53.333,24.342],[53.371,24.364],[53.412,24.411],[53.445,24.371],[53.409,24.308],[53.383,24.281],[53.332,24.259]]],[[[52.617,24.289],[52.6,24.281],[52.582,24.335],[52.584,24.352],[52.629,24.377],[52.658,24.333],[52.617,24.289]]],[[[53.928,24.177],[53.928,24.143],[53.826,24.153],[53.799,24.136],[53.716,24.145],[53.634,24.17],[53.69,24.211],[53.834,24.259],[53.894,24.215],[53.928,24.177]]],[[[54.465,24.443],[54.457,24.423],[54.428,24.425],[54.358,24.443],[54.335,24.471],[54.379,24.505],[54.398,24.506],[54.427,24.471],[54.465,24.443]]]]}},{"type":"Feature","properties":{"name":"Yemen","iso":"YEM"},"geometry":{"type":"MultiPolygon","coordinates":[[[[53.086,16.648],[52.581,16.47],[52.448,16.391],[52.328,16.294],[52.237,16.171],[52.174,15.957],[52.222,15.761],[52.217,15.656],[52.087,15.586],[51.966,15.536],[51.831,15.459],[51.749,15.44],[51.682,15.379],[51.604,15.337],[51.322,15.226],[51.015,15.141],[50.527,15.038],[50.339,14.927],[50.167,14.851],[49.906,14.828],[49.549,14.722],[49.35,14.638],[49.103,14.5],[49.103,14.5],[43.012,14.5],[43.019,14.521],[43.021,14.555],[42.947,14.773],[42.922,14.817],[42.913,14.863],[42.937,14.898],[42.936,14.939],[42.897,15.006],[42.856,15.133],[42.658,15.233],[42.698,15.326],[42.736,15.294],[42.788,15.266],[42.799,15.326],[42.8,15.372],[42.717,15.655],[42.84,16.032],[42.799,16.372],[42.986,16.509],[43.034,16.55],[43.061,16.587],[43.105,16.664],[43.165,16.689],[43.186,16.771],[43.184,16.812],[43.146,16.847],[43.117,16.942],[43.126,17.062],[43.136,17.113],[43.156,17.205],[43.221,17.239],[43.237,17.266],[43.186,17.325],[43.191,17.359],[43.302,17.457],[43.346,17.486],[43.418,17.516],[43.474,17.516],[43.539,17.499],[43.597,17.471],[43.653,17.422],[43.713,17.366],[43.804,17.344],[43.866,17.35],[43.917,17.325],[43.96,17.338],[44.008,17.367],[44.086,17.366],[44.156,17.399],[44.355,17.414],[44.546,17.404],[44.747,17.432],[44.946,17.43],[45.148,17.427],[45.193,17.423],[45.237,17.406],[45.407,17.32],[45.535,17.302],[45.794,17.278],[46.071,17.253],[46.31,17.231],[46.513,17.252],[46.682,17.269],[46.728,17.266],[46.779,17.212],[46.88,17.079],[46.976,16.953],[47.144,16.947],[47.251,16.994],[47.37,17.06],[47.442,17.112],[47.525,17.316],[47.58,17.448],[47.704,17.597],[47.808,17.721],[47.946,17.886],[48.022,17.977],[48.172,18.157],[48.316,18.227],[48.593,18.362],[48.865,18.495],[49.042,18.582],[49.192,18.621],[49.445,18.655],[49.742,18.695],[50.039,18.735],[50.355,18.778],[50.708,18.825],[50.95,18.858],[51.258,18.899],[51.515,18.934],[51.743,18.965],[51.978,18.996],[52.022,18.896],[52.066,18.796],[52.11,18.696],[52.155,18.597],[52.199,18.497],[52.243,18.397],[52.288,18.297],[52.332,18.197],[52.376,18.097],[52.42,17.997],[52.465,17.897],[52.509,17.798],[52.553,17.698],[52.597,17.598],[52.642,17.498],[52.686,17.398],[52.729,17.3],[52.801,17.268],[52.843,17.176],[52.904,17.044],[52.964,16.912],[53.025,16.78],[53.086,16.648]]],[[[42.59,15.303],[42.559,15.281],[42.549,15.32],[42.57,15.407],[42.602,15.433],[42.625,15.368],[42.61,15.332],[42.59,15.303]]]]}}]}